#dV2023  2  8 22  0  0.00000000    1682       CTS   FIT  GFZ
## 2248 338400.00000000    30.00000000 59983 0.9166666666667
+    1   L64  0  0  0  0  0  0  0  0  0  0  0  0  0  0  0  0
+          0  0  0  0  0  0  0  0  0  0  0  0  0  0  0  0  0
+          0  0  0  0  0  0  0  0  0  0  0  0  0  0  0  0  0
+          0  0  0  0  0  0  0  0  0  0  0  0  0  0  0  0  0
+          0  0  0  0  0  0  0  0  0  0  0  0  0  0  0  0  0
++         0  0  0  0  0  0  0  0  0  0  0  0  0  0  0  0  0
++         0  0  0  0  0  0  0  0  0  0  0  0  0  0  0  0  0
++         0  0  0  0  0  0  0  0  0  0  0  0  0  0  0  0  0
++         0  0  0  0  0  0  0  0  0  0  0  0  0  0  0  0  0
++         0  0  0  0  0  0  0  0  0  0  0  0  0  0  0  0  0
%c L  cc GPS ccc cccc cccc cccc cccc ccccc ccccc ccccc ccccc
%c cc cc ccc ccc cccc cccc cccc cccc ccccc ccccc ccccc ccccc
%f  0.0000000  0.000000000  0.00000000000  0.000000000000000
%f  0.0000000  0.000000000  0.00000000000  0.000000000000000
%i    0    0    0    0      0      0      0      0         0
%i    0    0    0    0      0      0      0      0         0
/* CCCCCCCCCCCCCCCCCCCCCCCCCCCCCCCCCCCCCCCCCCCCCCCCCCCCCCCCCCCCCCCCCCCCCCCCCCCCC
/* C                             GFZ RSO-ORBIT                                 C
/* C DOI: https://doi.org/10.5880/GFZ_ORBIT/RSO/L64_G_v02                      C
/* C                                                                           C
/* C DORIS        RMS: not applicable                                          C
/* C GNSS-E Code  RMS: not applicable                                          C
/* C GNSS-E Phase RMS: not applicable                                          C
/* C GNSS-G Code  RMS:  48.747 [cm]   Obs.acc.:     13940 Obs.eli.:       907  C
/* C GNSS-G Phase RMS:   4.405 [mm]   Obs.acc.:     13940 Obs.eli.:       907  C
/* C SLR          RMS:   2.582 [cm]   Obs.acc.:        38 Obs.eli.:         0  C
/* C                                                                           C
/* CCCCCCCCCCCCCCCCCCCCCCCCCCCCCCCCCCCCCCCCCCCCCCCCCCCCCCCCCCCCCCCCCCCCCCCCCCCCC
*  2023  2  9  7 21  0.00000000
PL64  -1704.916158   3543.858417  -5651.391700   7437.605477
VL64 -26550.766574  56414.291022  43328.823565 999999.999999
*  2023  2  9  7 21 30.00000000
PL64  -1783.256564   3711.310229  -5518.324906   7438.065729
VL64 -25672.285579  55209.425199  45374.304505 999999.999999
*  2023  2  9  7 22  0.00000000
PL64  -1858.927173   3875.050621  -5379.195394   7438.525479
VL64 -24771.106906  53940.214651  47370.266295 999999.999999
*  2023  2  9  7 22 30.00000000
PL64  -1931.861754   4034.888423  -5234.155020   7438.985575
VL64 -23848.476593  52607.913454  49314.518037 999999.999999
*  2023  2  9  7 23  0.00000000
PL64  -2001.997844   4190.636338  -5083.362135   7439.445754
VL64 -22905.658987  51213.850670  51204.921918 999999.999999
*  2023  2  9  7 23 30.00000000
PL64  -2069.276801   4342.111166  -4926.981420   7439.905947
VL64 -21943.934999  49759.428929  53039.395972 999999.999999
*  2023  2  9  7 24  0.00000000
PL64  -2133.643843   4489.134025  -4765.183715   7440.366131
VL64 -20964.600312  48246.122920  54815.916360 999999.999999
*  2023  2  9  7 24 30.00000000
PL64  -2195.048100   4631.530562  -4598.145841   7440.826229
VL64 -19968.963723  46675.478065  56532.519477 999999.999999
*  2023  2  9  7 25  0.00000000
PL64  -2253.442644   4769.131167  -4426.050419   7441.286467
VL64 -18958.345675  45049.109198  58187.304146 999999.999999
*  2023  2  9  7 25 30.00000000
PL64  -2308.784523   4901.771174  -4249.085673   7441.746379
VL64 -17934.076885  43368.699111  59778.434127 999999.999999
*  2023  2  9  7 26  0.00000000
PL64  -2361.034793   5029.291067  -4067.445239   7442.206477
VL64 -16897.496588  41635.996211  61304.140950 999999.999999
*  2023  2  9  7 26 30.00000000
PL64  -2410.158536   5151.536667  -3881.327953   7442.666443
VL64 -15849.949949  39852.811460  62762.724578 999999.999999
*  2023  2  9  7 27  0.00000000
PL64  -2456.124876   5268.359325  -3690.937650   7443.126624
VL64 -14792.786538  38021.018746  64152.552762 999999.999999
*  2023  2  9  7 27 30.00000000
PL64  -2498.906992   5379.616107  -3496.482955   7443.586564
VL64 -13727.359489  36142.555600  65472.065189 999999.999999
*  2023  2  9  7 28  0.00000000
PL64  -2538.482124   5485.169984  -3298.177061   7444.046757
VL64 -12655.023331  34219.419140  66719.777239 999999.999999
*  2023  2  9  7 28 30.00000000
PL64  -2574.831577   5584.890001  -3096.237504   7444.506818
VL64 -11577.132696  32253.663710  67894.279478 999999.999999
*  2023  2  9  7 29  0.00000000
PL64  -2607.940720   5678.651457  -2890.885929   7444.965954
VL64 -10495.041933  30247.400823  68994.239945 999999.999999
*  2023  2  9  7 29 30.00000000
PL64  -2637.798981   5766.336063  -2682.347859   7445.425663
VL64  -9410.103127  28202.796633  70018.407884 999999.999999
*  2023  2  9  7 30  0.00000000
PL64  -2664.399838   5847.832112  -2470.852444   7445.887191
VL64  -8323.663240  26122.069171  70965.615993 999999.999999
*  2023  2  9  7 30 30.00000000
PL64  -2687.740799   5923.034620  -2256.632208   7446.347408
VL64  -7237.061600  24007.485012  71834.782639 999999.999999
*  2023  2  9  7 31  0.00000000
PL64  -2707.823376   5991.845474  -2039.922788   7446.807630
VL64  -6151.628231  21861.354877  72624.912456 999999.999999
*  2023  2  9  7 31 30.00000000
PL64  -2724.653057   6054.173554  -1820.962682   7447.267652
VL64  -5068.683014  19686.031101  73335.095991 999999.999999
*  2023  2  9  7 32  0.00000000
PL64  -2738.239272   6109.934859  -1599.992985   7447.727506
VL64  -3989.534529  17483.906402  73964.510081 999999.999999
*  2023  2  9  7 32 30.00000000
PL64  -2748.595358   6159.052623  -1377.257129   7448.187784
VL64  -2915.478862  15257.412777  74512.420169 999999.999999
*  2023  2  9  7 33  0.00000000
PL64  -2755.738519   6201.457431  -1153.000614   7448.647955
VL64  -1847.797008  13009.016199  74978.183306 999999.999999
*  2023  2  9  7 33 30.00000000
PL64  -2759.689777   6237.087312   -927.470735   7449.107934
VL64   -787.752371  10741.212891  75361.243486 999999.999999
*  2023  2  9  7 34  0.00000000
PL64  -2760.473919   6265.887832   -700.916328   7449.568224
VL64    263.407557   8456.534095  75661.131876 999999.999999
*  2023  2  9  7 34 30.00000000
PL64  -2758.119448   6287.812204   -473.587491   7450.028517
VL64   1304.452263   6157.543230  75877.476389 999999.999999
*  2023  2  9  7 35  0.00000000
PL64  -2752.658530   6302.821365   -245.735290   7450.488210
VL64   2334.172842   3846.826564  76010.002978 999999.999999
*  2023  2  9  7 35 30.00000000
PL64  -2744.126921   6310.884042    -17.611473   7450.948552
VL64   3351.383686   1526.989694  76058.532460 999999.999999
*  2023  2  9  7 36  0.00000000
PL64  -2732.563900   6311.976806    210.531820   7451.408712
VL64   4354.923150   -799.343936  76022.980589 999999.999999
*  2023  2  9  7 36 30.00000000
PL64  -2718.012191   6306.084120    438.442338   7451.868633
VL64   5343.655595  -3129.536032  75903.359949 999999.999999
*  2023  2  9  7 37  0.00000000
PL64  -2700.517882   6293.198379    665.868017   7452.328480
VL64   6316.473980  -5460.938823  75699.780401 999999.999999
*  2023  2  9  7 37 30.00000000
PL64  -2680.130339   6273.319929    892.557264   7452.789046
VL64   7272.301260  -7790.899743  75412.446954 999999.999999
*  2023  2  9  7 38  0.00000000
PL64  -2656.902113   6246.457078   1118.259240   7453.249150
VL64   8210.090691 -10116.763321  75041.657862 999999.999999
*  2023  2  9  7 38 30.00000000
PL64  -2630.888849   6212.626103   1342.724144   7453.709016
VL64   9128.826480 -12435.872684  74587.805073 999999.999999
*  2023  2  9  7 39  0.00000000
PL64  -2602.149192   6171.851251   1565.703490   7454.169272
VL64  10027.525298 -14745.573282  74051.375018 999999.999999
*  2023  2  9  7 39 30.00000000
PL64  -2570.744685   6124.164721   1786.950394   7454.629272
VL64  10905.237520 -17043.217000  73432.947646 999999.999999
*  2023  2  9  7 40  0.00000000
PL64  -2536.739670   6069.606645   2006.219848   7455.089272
VL64  11761.048239 -19326.165140  72733.195483 999999.999999
*  2023  2  9  7 40 30.00000000
PL64  -2500.201177   6008.225052   2223.269003   7455.549488
VL64  12594.078500 -21591.791866  71952.882746 999999.999999
*  2023  2  9  7 41  0.00000000
PL64  -2461.198823   5940.075826   2437.857436   7456.009533
VL64  13403.485943 -23837.487199  71092.863683 999999.999999
*  2023  2  9  7 41 30.00000000
PL64  -2419.804691   5865.222653   2649.747420   7456.468129
VL64  14188.465525 -26060.659397  70154.081835 999999.999999
*  2023  2  9  7 42  0.00000000
PL64  -2376.093225   5783.736963   2858.704193   7456.929847
VL64  14948.250699 -28258.738302  69137.569358 999999.999999
*  2023  2  9  7 42 30.00000000
PL64  -2330.141110   5695.697862   3064.496222   7457.389922
VL64  15682.114045 -30429.178604  68044.445630 999999.999999
*  2023  2  9  7 43  0.00000000
PL64  -2282.027152   5601.192049   3266.895458   7457.849680
VL64  16389.367734 -32569.462942  66875.916315 999999.999999
*  2023  2  9  7 43 30.00000000
PL64  -2231.832162   5500.313728   3465.677602   7458.309933
VL64  17069.364453 -34677.105430  65633.272049 999999.999999
*  2023  2  9  7 44  0.00000000
PL64  -2179.638830   5393.164510   3660.622347   7458.770079
VL64  17721.498367 -36749.654828  64317.886311 999999.999999
*  2023  2  9  7 44 30.00000000
PL64  -2125.531600   5279.853307   3851.513630   7459.230150
VL64  18345.205467 -38784.697414  62931.213176 999999.999999
*  2023  2  9  7 45  0.00000000
PL64  -2069.596547   5160.496208   4038.139868   7459.690569
VL64  18939.963752 -40779.859378  61474.785207 999999.999999
*  2023  2  9  7 45 30.00000000
PL64  -2011.921247   5035.216365   4220.294193   7460.150568
VL64  19505.293538 -42732.808525  59950.212235 999999.999999
*  2023  2  9  7 46  0.00000000
PL64  -1952.594652   4904.143859   4397.774680   7460.610857
VL64  20040.758155 -44641.256826  58359.180647 999999.999999
EOF
